{
  "type": "FeatureCollection",
  "features": [
    {
      "type": "Feature",
      "properties": {
        "norad_id": 34814,
        "name": "COSMOS 2251 DEB",
        "group": "cosmos-2251-debris",
        "lat": 33.03689663199923,
        "lon": -23.493518885260507,
        "alt_km": 806.5978737828909,
        "timestamp": "2025-12-12T14:39:18.327760+00:00",
        "meta_object_name": "COSMOS 2251 DEB",
        "meta_object_id": "1993-036ABD",
        "meta_epoch": "2025-12-12T04:32:11.308992",
        "meta_mean_motion": 14.36890565,
        "meta_eccentricity": 0.00562518,
        "meta_inclination": 73.8961,
        "meta_ra_of_asc_node": 326.4591,
        "meta_arg_of_pericenter": 216.0666,
        "meta_mean_anomaly": 158.5556,
        "meta_ephemeris_type": 0,
        "meta_classification_type": "U",
        "meta_norad_cat_id": 34814,
        "meta_element_set_no": 999,
        "meta_rev_at_epoch": 87325,
        "meta_bstar": 0.001238429,
        "meta_mean_motion_dot": 3.705e-05,
        "meta_mean_motion_ddot": 0,
        "tle_line1": "1 34814U 93036ABD 25346.18901978  .00003705  00000+0  12384-2 0  9998",
        "tle_line2": "2 34814  73.8961 326.4591 0056251 216.0666 158.5556 14.36890565873259"
      },
      "geometry": {
        "type": "Point",
        "coordinates": [
          -23.493518885260507,
          33.03689663199923
        ]
      }
    },
    {
      "type": "Feature",
      "properties": {
        "norad_id": 34815,
        "name": "COSMOS 2251 DEB",
        "group": "cosmos-2251-debris",
        "lat": 9.1138182181648,
        "lon": 59.4238574347396,
        "alt_km": 667.9162083620458,
        "timestamp": "2025-12-12T14:39:18.327769+00:00",
        "meta_object_name": "COSMOS 2251 DEB",
        "meta_object_id": "1993-036ABE",
        "meta_epoch": "2025-12-12T04:08:15.756576",
        "meta_mean_motion": 14.78303806,
        "meta_eccentricity": 0.00588646,
        "meta_inclination": 74.0451,
        "meta_ra_of_asc_node": 242.9144,
        "meta_arg_of_pericenter": 312.1081,
        "meta_mean_anomaly": 47.5097,
        "meta_ephemeris_type": 0,
        "meta_classification_type": "U",
        "meta_norad_cat_id": 34815,
        "meta_element_set_no": 999,
        "meta_rev_at_epoch": 88619,
        "meta_bstar": 0.0013778323,
        "meta_mean_motion_dot": 0.00010289,
        "meta_mean_motion_ddot": 0,
        "tle_line1": "1 34815U 93036ABE 25346.17240459  .00010289  00000+0  13778-2 0  9991",
        "tle_line2": "2 34815  74.0451 242.9144 0058864 312.1081  47.5097 14.78303806886191"
      },
      "geometry": {
        "type": "Point",
        "coordinates": [
          59.4238574347396,
          9.1138182181648
        ]
      }
    },
    {
      "type": "Feature",
      "properties": {
        "norad_id": 34816,
        "name": "COSMOS 2251 DEB",
        "group": "cosmos-2251-debris",
        "lat": 3.880660015993459,
        "lon": -37.790527039645255,
        "alt_km": 805.8647736190396,
        "timestamp": "2025-12-12T14:39:18.327779+00:00",
        "meta_object_name": "COSMOS 2251 DEB",
        "meta_object_id": "1993-036ABF",
        "meta_epoch": "2025-12-12T03:45:47.255616",
        "meta_mean_motion": 13.58319359,
        "meta_eccentricity": 0.03734567,
        "meta_inclination": 73.8863,
        "meta_ra_of_asc_node": 144.0733,
        "meta_arg_of_pericenter": 208.6345,
        "meta_mean_anomaly": 271.0321,
        "meta_ephemeris_type": 0,
        "meta_classification_type": "U",
        "meta_norad_cat_id": 34816,
        "meta_element_set_no": 999,
        "meta_rev_at_epoch": 82775,
        "meta_bstar": 0.0017839318,
        "meta_mean_motion_dot": 2.021e-05,
        "meta_mean_motion_ddot": 0,
        "tle_line1": "1 34816U 93036ABF 25346.15679694  .00002021  00000+0  17839-2 0  9994",
        "tle_line2": "2 34816  73.8863 144.0733 0373456 208.6345 271.0321 13.58319359827759"
      },
      "geometry": {
        "type": "Point",
        "coordinates": [
          -37.790527039645255,
          3.880660015993459
        ]
      }
    },
    {
      "type": "Feature",
      "properties": {
        "norad_id": 34818,
        "name": "COSMOS 2251 DEB",
        "group": "cosmos-2251-debris",
        "lat": 67.1637377527184,
        "lon": 74.35148076317142,
        "alt_km": 762.6740640700664,
        "timestamp": "2025-12-12T14:39:18.327788+00:00",
        "meta_object_name": "COSMOS 2251 DEB",
        "meta_object_id": "1993-036ABH",
        "meta_epoch": "2025-12-12T06:07:24.155616",
        "meta_mean_motion": 14.36966335,
        "meta_eccentricity": 0.00241918,
        "meta_inclination": 74.0359,
        "meta_ra_of_asc_node": 297.83,
        "meta_arg_of_pericenter": 13.6859,
        "meta_mean_anomaly": 54.317,
        "meta_ephemeris_type": 0,
        "meta_classification_type": "U",
        "meta_norad_cat_id": 34818,
        "meta_element_set_no": 999,
        "meta_rev_at_epoch": 87363,
        "meta_bstar": 0.0003627249,
        "meta_mean_motion_dot": 1.052e-05,
        "meta_mean_motion_ddot": 0,
        "tle_line1": "1 34818U 93036ABH 25346.25514069  .00001052  00000+0  36272-3 0  9997",
        "tle_line2": "2 34818  74.0359 297.8300 0024191  13.6859  54.3170 14.36966335873635"
      },
      "geometry": {
        "type": "Point",
        "coordinates": [
          74.35148076317142,
          67.1637377527184
        ]
      }
    },
    {
      "type": "Feature",
      "properties": {
        "norad_id": 34819,
        "name": "COSMOS 2251 DEB",
        "group": "cosmos-2251-debris",
        "lat": 11.083145103144862,
        "lon": 146.12600425065878,
        "alt_km": 689.2869904218751,
        "timestamp": "2025-12-12T14:39:18.327797+00:00",
        "meta_object_name": "COSMOS 2251 DEB",
        "meta_object_id": "1993-036ABJ",
        "meta_epoch": "2025-12-12T03:39:15.255360",
        "meta_mean_motion": 14.63952127,
        "meta_eccentricity": 0.00156734,
        "meta_inclination": 74.0187,
        "meta_ra_of_asc_node": 143.7886,
        "meta_arg_of_pericenter": 237.8131,
        "meta_mean_anomaly": 238.9847,
        "meta_ephemeris_type": 0,
        "meta_classification_type": "U",
        "meta_norad_cat_id": 34819,
        "meta_element_set_no": 999,
        "meta_rev_at_epoch": 88220,
        "meta_bstar": 0.002313028,
        "meta_mean_motion_dot": 0.00012122,
        "meta_mean_motion_ddot": 0,
        "tle_line1": "1 34819U 93036ABJ 25346.15225990  .00012122  00000+0  23130-2 0  9997",
        "tle_line2": "2 34819  74.0187 143.7886 0015673 237.8131 238.9847 14.63952127882209"
      },
      "geometry": {
        "type": "Point",
        "coordinates": [
          146.12600425065878,
          11.083145103144862
        ]
      }
    },
    {
      "type": "Feature",
      "properties": {
        "norad_id": 34823,
        "name": "COSMOS 2251 DEB",
        "group": "cosmos-2251-debris",
        "lat": 57.6040096541656,
        "lon": 129.33216343476033,
        "alt_km": 766.8351294971453,
        "timestamp": "2025-12-12T14:39:18.327807+00:00",
        "meta_object_name": "COSMOS 2251 DEB",
        "meta_object_id": "1993-036ABN",
        "meta_epoch": "2025-12-10T14:30:29.359008",
        "meta_mean_motion": 14.54904355,
        "meta_eccentricity": 0.0154887,
        "meta_inclination": 74.0414,
        "meta_ra_of_asc_node": 106.322,
        "meta_arg_of_pericenter": 191.6219,
        "meta_mean_anomaly": 168.1356,
        "meta_ephemeris_type": 0,
        "meta_classification_type": "U",
        "meta_norad_cat_id": 34823,
        "meta_element_set_no": 999,
        "meta_rev_at_epoch": 88350,
        "meta_bstar": 0.0013618,
        "meta_mean_motion_dot": 6.85e-05,
        "meta_mean_motion_ddot": 0,
        "tle_line1": "1 34823U 93036ABN 25344.60450647  .00006850  00000+0  13618-2 0  9990",
        "tle_line2": "2 34823  74.0414 106.3220 0154887 191.6219 168.1356 14.54904355883502"
      },
      "geometry": {
        "type": "Point",
        "coordinates": [
          129.33216343476033,
          57.6040096541656
        ]
      }
    },
    {
      "type": "Feature",
      "properties": {
        "norad_id": 34845,
        "name": "COSMOS 2251 DEB",
        "group": "cosmos-2251-debris",
        "lat": 33.932179119172446,
        "lon": 159.70531281333896,
        "alt_km": 735.6111569591831,
        "timestamp": "2025-12-12T14:39:18.327816+00:00",
        "meta_object_name": "COSMOS 2251 DEB",
        "meta_object_id": "1993-036ABP",
        "meta_epoch": "2025-12-09T20:04:05.418048",
        "meta_mean_motion": 14.45850049,
        "meta_eccentricity": 0.00222586,
        "meta_inclination": 74.0237,
        "meta_ra_of_asc_node": 153.7694,
        "meta_arg_of_pericenter": 315.2139,
        "meta_mean_anomaly": 44.7222,
        "meta_ephemeris_type": 0,
        "meta_classification_type": "U",
        "meta_norad_cat_id": 34845,
        "meta_element_set_no": 999,
        "meta_rev_at_epoch": 87424,
        "meta_bstar": 0.00046671234,
        "meta_mean_motion_dot": 1.636e-05,
        "meta_mean_motion_ddot": 0,
        "tle_line1": "1 34845U 93036ABP 25343.83617382  .00001636  00000+0  46671-3 0  9992",
        "tle_line2": "2 34845  74.0237 153.7694 0022258 315.2139  44.7222 14.45850049874243"
      },
      "geometry": {
        "type": "Point",
        "coordinates": [
          159.70531281333896,
          33.932179119172446
        ]
      }
    }
  ]
}